{
    "links": {
        "self": "http://www.neowsapp.com/rest/v1/neo/3654983?api_key=iIulBulltgU6a56xZRHN4H3l9WmuAYTsLGpBGhQ2"
    },
    "id": "3654983",
    "neo_reference_id": "3654983",
    "name": "(2013 YB)",
    "designation": "2013 YB",
    "nasa_jpl_url": "http://ssd.jpl.nasa.gov/sbdb.cgi?sstr=3654983",
    "absolute_magnitude_h": 31.5,
    "estimated_diameter": {
        "kilometers": {
            "estimated_diameter_min": 0.0013321557,
            "estimated_diameter_max": 0.0029787906
        },
        "meters": {
            "estimated_diameter_min": 1.332155667,
            "estimated_diameter_max": 2.978790628
        },
        "miles": {
            "estimated_diameter_min": 0.0008277629,
            "estimated_diameter_max": 0.0018509341
        },
        "feet": {
            "estimated_diameter_min": 4.3705895985,
            "estimated_diameter_max": 9.7729354439
        }
    },
    "is_potentially_hazardous_asteroid": false,
    "close_approach_data": [
        {
            "close_approach_date": "2013-12-23",
            "close_approach_date_full": "2013-Dec-23 12:22",
            "epoch_date_close_approach": 1387801320000,
            "relative_velocity": {
                "kilometers_per_second": "9.3160965237",
                "kilometers_per_hour": "33537.9474853042",
                "miles_per_hour": "20839.1763138547"
            },
            "miss_distance": {
                "astronomical": "0.0025201016",
                "lunar": "0.9803195224",
                "kilometers": "377001.831543592",
                "miles": "234258.0754298896"
            },
            "orbiting_body": "Moon"
        },
        {
            "close_approach_date": "2013-12-23",
            "close_approach_date_full": "2013-Dec-23 12:51",
            "epoch_date_close_approach": 1387803060000,
            "relative_velocity": {
                "kilometers_per_second": "10.5001401279",
                "kilometers_per_hour": "37800.5044605174",
                "miles_per_hour": "23487.7634521476"
            },
            "miss_distance": {
                "astronomical": "0.0001814762",
                "lunar": "0.0705942418",
                "kilometers": "27148.452975694",
                "miles": "16869.2664408172"
            },
            "orbiting_body": "Earth"
        },
        {
            "close_approach_date": "2014-02-08",
            "close_approach_date_full": "2014-Feb-08 22:23",
            "epoch_date_close_approach": 1391898180000,
            "relative_velocity": {
                "kilometers_per_second": "2.7084029499",
                "kilometers_per_hour": "9750.2506196162",
                "miles_per_hour": "6058.4265586165"
            },
            "miss_distance": {
                "astronomical": "0.1189891128",
                "lunar": "46.2867648792",
                "kilometers": "17800517.828069736",
                "miles": "11060728.8855489168"
            },
            "orbiting_body": "Venus"
        }
    ],
    "orbital_data": {
        "orbit_id": "4",
        "orbit_determination_date": "2017-04-06 08:43:15",
        "first_observation_date": "2013-12-23",
        "last_observation_date": "2013-12-23",
        "data_arc_in_days": null,
        "observations_used": 11,
        "orbit_uncertainty": "9",
        "minimum_orbit_intersection": ".000125141",
        "jupiter_tisserand_invariant": "4.342",
        "epoch_osculation": "2456649.5",
        "eccentricity": ".427424325850541",
        "semi_major_axis": "1.551063022807776",
        "inclination": ".1920257546797197",
        "ascending_node_longitude": "269.0317692564015",
        "orbital_period": "705.574039966471",
        "perihelion_distance": ".8881009559324603",
        "perihelion_argument": "230.1520374982327",
        "aphelion_distance": "2.214025089683092",
        "perihelion_time": "2456686.265545790346",
        "mean_anomaly": "341.2413783177829",
        "mean_motion": ".5102228534614274",
        "equinox": "J2000",
        "orbit_class": {
            "orbit_class_type": "APO",
            "orbit_class_description": "Near-Earth asteroid orbits which cross the Earth’s orbit similar to that of 1862 Apollo",
            "orbit_class_range": "a (semi-major axis) > 1.0 AU; q (perihelion) < 1.017 AU"
        }
    },
    "is_sentry_object": false
}